[{"OBJECT_NAME":"GEESAT-5 04","OBJECT_ID":"2025-201D","EPOCH":"2026-03-09T16:43:55.713504","MEAN_MOTION":14.83246281,"ECCENTRICITY":0.00110249,"INCLINATION":49.9844,"RA_OF_ASC_NODE":141.1656,"ARG_OF_PERICENTER":244.2414,"MEAN_ANOMALY":115.7387,"EPHEMERIS_TYPE":0,"CLASSIFICATION_TYPE":"U","NORAD_CAT_ID":65553,"ELEMENT_SET_NO":999,"REV_AT_EPOCH":2701,"BSTAR":0.00027420324,"MEAN_MOTION_DOT":2.041e-5,"MEAN_MOTION_DDOT":0},{"OBJECT_NAME":"SL-14 R\/B","OBJECT_ID":"1985-113B","EPOCH":"2026-03-09T21:32:10.720320","MEAN_MOTION":14.85814866,"ECCENTRICITY":0.00165952,"INCLINATION":82.5369,"RA_OF_ASC_NODE":349.468,"ARG_OF_PERICENTER":266.4967,"MEAN_ANOMALY":162.3291,"EPHEMERIS_TYPE":0,"CLASSIFICATION_TYPE":"U","NORAD_CAT_ID":16327,"ELEMENT_SET_NO":999,"REV_AT_EPOCH":15349,"BSTAR":7.2989472e-5,"MEAN_MOTION_DOT":6.6e-6,"MEAN_MOTION_DDOT":0}]
